1998-067XY              
1 66912U 98067XY  26016.28178246  .00045958  00000+0  67474-3 0  9998
2 66912  51.6311 330.4500 0003384  49.8415 310.2872 15.55032427  6976
